[{"OBJECT_NAME":"SL-8 R/B","OBJECT_ID":"1979-089B","EPOCH":"2026-03-22T05:31:26.478048","MEAN_MOTION":14.42357239,"ECCENTRICITY":0.00169542,"INCLINATION":74.0675,"RA_OF_ASC_NODE":67.827,"ARG_OF_PERICENTER":239.0578,"MEAN_ANOMALY":120.8913,"EPHEMERIS_TYPE":0,"CLASSIFICATION_TYPE":"U","NORAD_CAT_ID":11574,"ELEMENT_SET_NO":999,"REV_AT_EPOCH":43791,"BSTAR":4.8939977e-5,"MEAN_MOTION_DOT":1.35e-6,"MEAN_MOTION_DDOT":0},{"OBJECT_NAME":"SL-14 R/B","OBJECT_ID":"1980-005B","EPOCH":"2026-03-22T01:50:17.098656","MEAN_MOTION":14.90943734,"ECCENTRICITY":0.0017031,"INCLINATION":82.5121,"RA_OF_ASC_NODE":295.4846,"ARG_OF_PERICENTER":119.4527,"MEAN_ANOMALY":240.8394,"EPHEMERIS_TYPE":0,"CLASSIFICATION_TYPE":"U","NORAD_CAT_ID":11672,"ELEMENT_SET_NO":999,"REV_AT_EPOCH":47833,"BSTAR":5.0648596e-5,"MEAN_MOTION_DOT":5.27e-6,"MEAN_MOTION_DDOT":0},{"OBJECT_NAME":"SL-8 R/B","OBJECT_ID":"1981-003B","EPOCH":"2026-03-21T18:53:27.028896","MEAN_MOTION":15.11472903,"ECCENTRICITY":0.02613747,"INCLINATION":82.9348,"RA_OF_ASC_NODE":278.8336,"ARG_OF_PERICENTER":136.4789,"MEAN_ANOMALY":225.74,"EPHEMERIS_TYPE":0,"CLASSIFICATION_TYPE":"U","NORAD_CAT_ID":12139,"ELEMENT_SET_NO":999,"REV_AT_EPOCH":31650,"BSTAR":0.00066906665,"MEAN_MOTION_DOT":0.00026457,"MEAN_MOTION_DDOT":0},{"OBJECT_NAME":"SL-3 R/B","OBJECT_ID":"1981-046B","EPOCH":"2026-03-22T05:49:01.415136","MEAN_MOTION":15.42290849,"ECCENTRICITY":0.00185631,"INCLINATION":81.2282,"RA_OF_ASC_NODE":274.6647,"ARG_OF_PERICENTER":338.2665,"MEAN_ANOMALY":21.7788,"EPHEMERIS_TYPE":0,"CLASSIFICATION_TYPE":"U","NORAD_CAT_ID":12465,"ELEMENT_SET_NO":999,"REV_AT_EPOCH":44036,"BSTAR":0.00030320409,"MEAN_MOTION_DOT":0.00013164,"MEAN_MOTION_DDOT":0},{"OBJECT_NAME":"SL-3 R/B","OBJECT_ID":"1981-103B","EPOCH":"2026-03-22T06:25:58.840032","MEAN_MOTION":15.21520618,"ECCENTRICITY":0.00124704,"INCLINATION":81.1609,"RA_OF_ASC_NODE":198.6769,"ARG_OF_PERICENTER":240.9613,"MEAN_ANOMALY":119.037,"EPHEMERIS_TYPE":0,"CLASSIFICATION_TYPE":"U","NORAD_CAT_ID":12904,"ELEMENT_SET_NO":999,"REV_AT_EPOCH":97514,"BSTAR":0.00031680125,"MEAN_MOTION_DOT":7.171e-5,"MEAN_MOTION_DDOT":0},{"OBJECT_NAME":"SL-3 R/B","OBJECT_ID":"1982-013B","EPOCH":"2026-03-22T04:55:33.805632","MEAN_MOTION":15.22126335,"ECCENTRICITY":0.00233286,"INCLINATION":81.1743,"RA_OF_ASC_NODE":146.102,"ARG_OF_PERICENTER":135.8983,"MEAN_ANOMALY":224.4115,"EPHEMERIS_TYPE":0,"CLASSIFICATION_TYPE":"U","NORAD_CAT_ID":13068,"ELEMENT_SET_NO":999,"REV_AT_EPOCH":40625,"BSTAR":0.00021297499,"MEAN_MOTION_DOT":4.942e-5,"MEAN_MOTION_DDOT":0},{"OBJECT_NAME":"SL-3 R/B","OBJECT_ID":"1982-039B","EPOCH":"2026-03-22T05:54:37.255392","MEAN_MOTION":15.10147564,"ECCENTRICITY":0.00290588,"INCLINATION":81.158,"RA_OF_ASC_NODE":201.4842,"ARG_OF_PERICENTER":283.171,"MEAN_ANOMALY":76.6274,"EPHEMERIS_TYPE":0,"CLASSIFICATION_TYPE":"U","NORAD_CAT_ID":13154,"ELEMENT_SET_NO":999,"REV_AT_EPOCH":38353,"BSTAR":0.0001871019,"MEAN_MOTION_DOT":3.104e-5,"MEAN_MOTION_DDOT":0},{"OBJECT_NAME":"SL-3 R/B","OBJECT_ID":"1982-079B","EPOCH":"2026-03-22T06:22:41.003904","MEAN_MOTION":15.24969039,"ECCENTRICITY":0.0025471,"INCLINATION":81.1489,"RA_OF_ASC_NODE":178.2289,"ARG_OF_PERICENTER":123.3322,"MEAN_ANOMALY":237.0355,"EPHEMERIS_TYPE":0,"CLASSIFICATION_TYPE":"U","NORAD_CAT_ID":13403,"ELEMENT_SET_NO":999,"REV_AT_EPOCH":37961,"BSTAR":0.00029872522,"MEAN_MOTION_DOT":7.542e-5,"MEAN_MOTION_DDOT":0},{"OBJECT_NAME":"SL-14 R/B","OBJECT_ID":"1982-092B","EPOCH":"2026-03-22T05:33:38.728800","MEAN_MOTION":14.86677484,"ECCENTRICITY":0.00187852,"INCLINATION":82.5671,"RA_OF_ASC_NODE":129.6677,"ARG_OF_PERICENTER":258.6633,"MEAN_ANOMALY":172.8112,"EPHEMERIS_TYPE":0,"CLASSIFICATION_TYPE":"U","NORAD_CAT_ID":13553,"ELEMENT_SET_NO":999,"REV_AT_EPOCH":33079,"BSTAR":4.6511839e-5,"MEAN_MOTION_DOT":4.39e-6,"MEAN_MOTION_DDOT":0},{"OBJECT_NAME":"SL-3 R/B","OBJECT_ID":"1983-010B","EPOCH":"2026-03-22T04:23:53.728800","MEAN_MOTION":15.46772572,"ECCENTRICITY":0.00167418,"INCLINATION":81.1057,"RA_OF_ASC_NODE":346.9279,"ARG_OF_PERICENTER":9.472,"MEAN_ANOMALY":350.6837,"EPHEMERIS_TYPE":0,"CLASSIFICATION_TYPE":"U","NORAD_CAT_ID":13819,"ELEMENT_SET_NO":999,"REV_AT_EPOCH":35987,"BSTAR":0.00037713176,"MEAN_MOTION_DOT":0.00019039,"MEAN_MOTION_DDOT":0},{"OBJECT_NAME":"SL-3 R/B","OBJECT_ID":"1983-075B","EPOCH":"2026-03-22T05:44:42.447552","MEAN_MOTION":15.38701036,"ECCENTRICITY":0.00215161,"INCLINATION":97.6142,"RA_OF_ASC_NODE":86.2945,"ARG_OF_PERICENTER":179.4025,"MEAN_ANOMALY":180.7249,"EPHEMERIS_TYPE":0,"CLASSIFICATION_TYPE":"U","NORAD_CAT_ID":14208,"ELEMENT_SET_NO":999,"REV_AT_EPOCH":33208,"BSTAR":0.00033366375,"MEAN_MOTION_DOT":0.00012778,"MEAN_MOTION_DDOT":0},{"OBJECT_NAME":"COSMOS 1536","OBJECT_ID":"1984-013A","EPOCH":"2026-03-22T03:07:28.898112","MEAN_MOTION":15.23982382,"ECCENTRICITY":0.00127245,"INCLINATION":82.5415,"RA_OF_ASC_NODE":95.4789,"ARG_OF_PERICENTER":233.7903,"MEAN_ANOMALY":126.2159,"EPHEMERIS_TYPE":0,"CLASSIFICATION_TYPE":"U","NORAD_CAT_ID":14699,"ELEMENT_SET_NO":999,"REV_AT_EPOCH":27451,"BSTAR":0.00033138685,"MEAN_MOTION_DOT":8.07e-5,"MEAN_MOTION_DDOT":0},{"OBJECT_NAME":"SL-14 R/B","OBJECT_ID":"1984-027B","EPOCH":"2026-03-22T03:36:44.082144","MEAN_MOTION":14.85988944,"ECCENTRICITY":0.00165791,"INCLINATION":82.5402,"RA_OF_ASC_NODE":233.324,"ARG_OF_PERICENTER":294.2395,"MEAN_ANOMALY":65.7089,"EPHEMERIS_TYPE":0,"CLASSIFICATION_TYPE":"U","NORAD_CAT_ID":14820,"ELEMENT_SET_NO":999,"REV_AT_EPOCH":24948,"BSTAR":5.637991e-5,"MEAN_MOTION_DOT":5.17e-6,"MEAN_MOTION_DDOT":0},{"OBJECT_NAME":"SL-8 R/B","OBJECT_ID":"1985-006B","EPOCH":"2026-03-22T04:53:28.562784","MEAN_MOTION":14.37792391,"ECCENTRICITY":0.00179297,"INCLINATION":74.0439,"RA_OF_ASC_NODE":238.119,"ARG_OF_PERICENTER":152.4789,"MEAN_ANOMALY":20.1682,"EPHEMERIS_TYPE":0,"CLASSIFICATION_TYPE":"U","NORAD_CAT_ID":15483,"ELEMENT_SET_NO":999,"REV_AT_EPOCH":15582,"BSTAR":0.00012722229,"MEAN_MOTION_DOT":3.58e-6,"MEAN_MOTION_DDOT":0},{"OBJECT_NAME":"SL-12 R/B(2)","OBJECT_ID":"1985-042D","EPOCH":"2026-03-22T07:02:19.968288","MEAN_MOTION":14.21985689,"ECCENTRICITY":0.00328863,"INCLINATION":71.1073,"RA_OF_ASC_NODE":61.0983,"ARG_OF_PERICENTER":107.2673,"MEAN_ANOMALY":350.8948,"EPHEMERIS_TYPE":0,"CLASSIFICATION_TYPE":"U","NORAD_CAT_ID":15772,"ELEMENT_SET_NO":999,"REV_AT_EPOCH":11618,"BSTAR":6.8824081e-5,"MEAN_MOTION_DOT":1.05e-6,"MEAN_MOTION_DDOT":0},{"OBJECT_NAME":"SL-14 R/B","OBJECT_ID":"1985-069B","EPOCH":"2026-03-22T04:46:18.441984","MEAN_MOTION":14.8644644,"ECCENTRICITY":0.00195776,"INCLINATION":82.5302,"RA_OF_ASC_NODE":13.173,"ARG_OF_PERICENTER":146.9008,"MEAN_ANOMALY":213.3438,"EPHEMERIS_TYPE":0,"CLASSIFICATION_TYPE":"U","NORAD_CAT_ID":15945,"ELEMENT_SET_NO":999,"REV_AT_EPOCH":17469,"BSTAR":5.58868e-5,"MEAN_MOTION_DOT":5.2e-6,"MEAN_MOTION_DDOT":0},{"OBJECT_NAME":"SL-16 R/B","OBJECT_ID":"1985-097B","EPOCH":"2026-03-22T06:38:08.911392","MEAN_MOTION":14.16601633,"ECCENTRICITY":0.00095678,"INCLINATION":71.0012,"RA_OF_ASC_NODE":114.0551,"ARG_OF_PERICENTER":244.7577,"MEAN_ANOMALY":193.0382,"EPHEMERIS_TYPE":0,"CLASSIFICATION_TYPE":"U","NORAD_CAT_ID":16182,"ELEMENT_SET_NO":999,"REV_AT_EPOCH":8901,"BSTAR":0.00014644599,"MEAN_MOTION_DOT":2.44e-6,"MEAN_MOTION_DDOT":0}]
